NORAD_CAT_ID,OBJECT_NAME,OBJECT_TYPE,EPOCH,MEAN_MOTION,ECCENTRICITY,INCLINATION,RA_OF_ASC_NODE,ARG_OF_PERICENTER,MEAN_ANOMALY,BSTAR,MEAN_MOTION_DOT,MEAN_MOTION_DDOT,TLE_LINE0,TLE_LINE1,TLE_LINE2,SEMIMAJOR_AXIS,PERIOD,APOGEE,PERIGEE,DECAYED
52114.0,STARLINK-3737,PAYLOAD,2023-09-08 10:24:03,15.08843108,0.0001485,53.2179,218.8869,80.4679,279.6481,6.6161e-05,7.65e-06,0.0,0 STARLINK-3737,1 52114U 22029AC  23251.43337663  .00000765  00000-0  66161-4 0  9998,2 52114  53.2179 218.8869 0001485  80.4679 279.6481 15.08843108 82911,6917.871,95.437,540.763,538.709,0.0
52114.0,STARLINK-3737,PAYLOAD,2023-09-08 15:10:13,15.08839023,0.0001407,53.2166,217.9947,86.0732,274.0421,3.7547e-05,3.1e-06,0.0,0 STARLINK-3737,1 52114U 22029AC  23251.63209975  .00000310  00000-0  37547-4 0  9996,2 52114  53.2166 217.9947 0001407  86.0732 274.0421 15.08839023 82947,6917.883,95.438,540.722,538.775,0.0
52114.0,STARLINK-3737,PAYLOAD,2023-09-09 07:04:04,15.08833549,0.0001502,53.217,215.0209,90.4614,269.655,0.0002005,2.904e-05,0.0,0 STARLINK-3737,1 52114U 22029AC  23252.29449795  .00002904  00000-0  20050-3 0  9996,2 52114  53.2170 215.0209 0001502  90.4614 269.6550 15.08833549 83059,6917.9,95.438,540.804,538.726,0.0
52114.0,STARLINK-3737,PAYLOAD,2023-09-10 06:54:51,15.088434,0.0001355,53.2168,210.5612,91.3912,268.7236,4.5515e-05,4.37e-06,0.0,0 STARLINK-3737,1 52114U 22029AC  23253.28809899  .00000437  00000-0  45515-4 0  9994,2 52114  53.2168 210.5612 0001355  91.3912 268.7236 15.08843400 83194,6917.87,95.437,540.672,538.798,0.0
52114.0,STARLINK-3737,PAYLOAD,2023-09-11 03:34:52,15.08836541,0.0001283,53.2189,206.6933,102.7596,257.3539,0.00012983,1.779e-05,0.0,0 STARLINK-3737,1 52114U 22029AC  23254.14922149  .00001779  00000-0  12983-3 0  9996,2 52114  53.2189 206.6933 0001283 102.7596 257.3539 15.08836541 83338,6917.891,95.438,540.644,538.868,0.0
52114.0,STARLINK-3737,PAYLOAD,2023-09-11 06:45:38,15.08844431,0.0001489,53.2184,206.0996,93.2142,266.902,3.7492e-05,3.09e-06,0.0,0 STARLINK-3737,1 52114U 22029AC  23254.28169925  .00000309  00000-0  37492-4 0  9997,2 52114  53.2184 206.0996 0001489  93.2142 266.9020 15.08844431 83344,6917.867,95.437,540.762,538.702,0.0
52114.0,STARLINK-3737,PAYLOAD,2023-09-12 05:01:02,15.0884116,0.0001263,53.2183,201.9377,95.8283,264.2853,9.1177e-05,1.164e-05,0.0,0 STARLINK-3737,1 52114U 22029AC  23255.20905984  .00001164  00000-0  91177-4 0  9993,2 52114  53.2183 201.9377 0001263  95.8283 264.2853 15.08841160 83491,6917.877,95.437,540.616,538.868,0.0
52114.0,STARLINK-3737,PAYLOAD,2023-09-13 03:16:26,15.08846249,0.0001328,53.2186,197.7789,99.0883,261.026,6.5581e-05,7.56e-06,0.0,0 STARLINK-3737,1 52114U 22029AC  23256.13641944  .00000756  00000-0  65581-4 0  9995,2 52114  53.2186 197.7789 0001328  99.0883 261.0260 15.08846249 83622,6917.861,95.437,540.645,538.808,0.0
52114.0,STARLINK-3737,PAYLOAD,2023-09-13 20:45:41,15.08839872,0.0001259,53.218,194.5065,95.6715,264.442,-8.1538e-06,-4.18e-06,0.0,0 STARLINK-3737,1 52114U 22029AC  23256.86506610 -.00000418  00000-0 -81538-5 0  9993,2 52114  53.2180 194.5065 0001259  95.6715 264.4420 15.08839872 83738,6917.881,95.438,540.617,538.875,0.0
52114.0,STARLINK-3737,PAYLOAD,2023-09-14 01:31:50,15.08843734,0.0001204,53.2177,193.6129,103.713,256.3997,7.8995e-06,-1.62e-06,0.0,0 STARLINK-3737,1 52114U 22029AC  23257.06378231 -.00000162  00000-0  78995-5 0  9990,2 52114  53.2177 193.6129 0001204 103.7130 256.3997 15.08843734 83772,6917.869,95.437,540.567,538.901,0.0
52114.0,STARLINK-3737,PAYLOAD,2023-09-14 06:17:59,15.08847719,0.0001183,53.2177,192.7198,101.4895,258.623,4.2104e-05,3.82e-06,0.0,0 STARLINK-3737,1 52114U 22029AC  23257.26249855  .00000382  00000-0  42104-4 0  9996,2 52114  53.2177 192.7198 0001183 101.4895 258.6230 15.08847719 83791,6917.857,95.437,540.54,538.903,0.0
52114.0,STARLINK-3737,PAYLOAD,2023-09-15 01:22:38,15.088392,0.0001277,53.2177,189.151,91.8321,268.2817,-5.1901e-05,-1.114e-05,0.0,0 STARLINK-3737,1 52114U 22029AC  23258.05739022 -.00001114  00000-0 -51901-4 0  9995,2 52114  53.2177 189.1510 0001277  91.8321 268.2817 15.08839200 83928,6917.883,95.438,540.631,538.864,0.0
52114.0,STARLINK-3737,PAYLOAD,2023-09-15 04:33:24,15.08843399,0.0001226,53.2177,188.5558,90.1057,270.0076,-1.8398e-05,-5.81e-06,0.0,0 STARLINK-3737,1 52114U 22029AC  23258.18986699 -.00000581  00000-0 -18398-4 0  9993,2 52114  53.2177 188.5558 0001226  90.1057 270.0076 15.08843399 83938,6917.87,95.437,540.583,538.887,0.0
52114.0,STARLINK-3737,PAYLOAD,2023-09-16 04:24:11,15.08845211,0.0001361,53.2187,184.0946,98.3181,261.7966,0.0001059,1.398e-05,0.0,0 STARLINK-3737,1 52114U 22029AC  23259.18346513  .00001398  00000-0  10590-3 0  9999,2 52114  53.2187 184.0946 0001361  98.3181 261.7966 15.08845211 84097,6917.864,95.437,540.671,538.788,0.0
52114.0,STARLINK-3737,PAYLOAD,2023-09-17 01:04:12,15.08834363,0.0001282,53.2188,180.2255,107.8355,252.2777,0.00011563,1.553e-05,0.0,0 STARLINK-3737,1 52114U 22029AC  23260.04459222  .00001553  00000-0  11563-3 0  9992,2 52114  53.2188 180.2255 0001282 107.8355 252.2777 15.08834363 84226,6917.898,95.438,540.649,538.876,0.0
52114.0,STARLINK-3737,PAYLOAD,2023-09-17 04:14:58,15.0884138,0.0001496,53.219,179.6308,102.6918,257.4241,7.6444e-05,9.29e-06,0.0,0 STARLINK-3737,1 52114U 22029AC  23260.17707037  .00000929  00000-0  76444-4 0  9992,2 52114  53.2190 179.6308 0001496 102.6918 257.4241 15.08841380 84236,6917.876,95.437,540.776,538.706,0.0
52114.0,STARLINK-3737,PAYLOAD,2023-09-18 00:54:58,15.08857551,0.0001365,53.2182,175.7674,100.3302,259.7844,0.00010773,1.428e-05,0.0,0 STARLINK-3737,1 52114U 22029AC  23261.03817865  .00001428  00000-0  10773-3 0  9996,2 52114  53.2182 175.7674 0001365 100.3302 259.7844 15.08857551 84373,6917.827,95.436,540.636,538.747,0.0
52114.0,STARLINK-3737,PAYLOAD,2023-09-18 04:05:44,15.08856639,0.0001395,53.2179,175.1738,107.4695,252.645,0.00012452,1.695e-05,0.0,0 STARLINK-3737,1 52114U 22029AC  23261.17065776  .00001695  00000-0  12452-3 0  9999,2 52114  53.2179 175.1738 0001395 107.4695 252.6450 15.08856639 84382,6917.83,95.437,540.66,538.729,0.0
52114.0,STARLINK-3737,PAYLOAD,2023-09-19 00:45:46,15.08848447,0.0001361,53.2182,171.3093,87.466,272.6488,9.5563e-05,1.234e-05,0.0,0 STARLINK-3737,1 52114U 22029AC  23262.03178424  .00001234  00000-0  95563-4 0  9994,2 52114  53.2182 171.3093 0001361  87.4660 272.6488 15.08848447 84527,6917.855,95.437,540.661,538.778,0.0
52114.0,STARLINK-3737,PAYLOAD,2023-09-20 02:11:55,15.08856981,0.0001438,53.2168,166.5511,87.3109,272.8048,0.00014771,2.065e-05,0.0,0 STARLINK-3737,1 52114U 22029AC  23263.09161544  .00002065  00000-0  14771-3 0  9990,2 52114  53.2168 166.5511 0001438  87.3109 272.8048 15.08856981 84687,6917.828,95.436,540.688,538.699,0.0
52114.0,STARLINK-3737,PAYLOAD,2023-09-20 10:08:51,15.08844138,0.0001605,53.2174,165.0636,73.2262,286.8906,-1.0302e-05,-4.52e-06,0.0,0 STARLINK-3737,1 52114U 22029AC  23263.42281960 -.00000452  00000-0 -10302-4 0  9999,2 52114  53.2174 165.0636 0001605  73.2262 286.8906 15.08844138 84720,6917.868,95.437,540.843,538.622,0.0
52114.0,STARLINK-3737,PAYLOAD,2023-09-20 18:05:48,15.08833235,0.0002624,53.2174,163.5795,77.8064,282.3222,-0.00015254,-2.715e-05,0.0,0 STARLINK-3737,1 52114U 22029AC  23263.75403350 -.00002715  00000-0 -15254-3 0  9998,2 52114  53.2174 163.5795 0002624  77.8064 282.3222 15.08833235 84785,6917.901,95.438,541.581,537.951,0.0
52114.0,STARLINK-3737,PAYLOAD,2023-09-20 21:16:35,15.08815643,0.0001651,53.2173,162.9847,78.7972,281.3205,-0.00038865,-6.464e-05,0.0,0 STARLINK-3737,1 52114U 22029AC  23263.88652059 -.00006464  00000-0 -38865-3 0  9992,2 52114  53.2173 162.9847 0001651  78.7972 281.3205 15.08815643 84796,6917.955,95.439,540.962,538.678,0.0
52114.0,STARLINK-3737,PAYLOAD,2023-09-21 02:02:44,15.08817474,0.0001581,53.2183,162.0943,79.9997,280.1174,-0.00031808,-5.344e-05,0.0,0 STARLINK-3737,1 52114U 22029AC  23264.08524201 -.00005344  00000-0 -31808-3 0  9998,2 52114  53.2183 162.0943 0001581  79.9997 280.1174 15.08817474 84838,6917.949,95.439,540.908,538.721,0.0
52114.0,STARLINK-3737,PAYLOAD,2023-09-21 21:07:22,15.08834148,0.0001085,53.2166,158.5239,97.118,262.9935,-2.9524e-05,-7.58e-06,0.0,0 STARLINK-3737,1 52114U 22029AC  23264.88011743 -.00000758  00000-0 -29524-4 0  9995,2 52114  53.2166 158.5239 0001085  97.1180 262.9935 15.08834148 84944,6917.898,95.438,540.514,539.013,0.0
52114.0,STARLINK-3737,PAYLOAD,2023-09-22 00:18:08,15.08839438,0.0001415,53.2167,157.9335,97.901,262.2143,9.8581e-05,1.281e-05,0.0,0 STARLINK-3737,1 52114U 22029AC  23265.01259680  .00001281  00000-0  98581-4 0  9994,2 52114  53.2167 157.9335 0001415  97.9010 262.2143 15.08839438 84976,6917.882,95.438,540.726,538.768,0.0
52114.0,STARLINK-3737,PAYLOAD,2023-09-22 03:28:54,15.08849467,0.0001464,53.218,157.3362,93.9278,266.1882,0.00029284,4.377e-05,0.0,0 STARLINK-3737,1 52114U 22029AC  23265.14507295  .00004377  00000-0  29284-3 0  9998,2 52114  53.2180 157.3362 0001464  93.9278 266.1882 15.08849467 84999,6917.851,95.437,540.729,538.704,0.0
52114.0,STARLINK-3737,PAYLOAD,2023-09-22 20:58:09,15.0884717,0.000135,53.2169,154.0635,74.1647,285.9494,0.00046558,7.131e-05,0.0,0 STARLINK-3737,1 52114U 22029AC  23265.87371843  .00007131  00000-0  46558-3 0  9990,2 52114  53.2169 154.0635 0001350  74.1647 285.9494 15.08847170 85097,6917.858,95.437,540.657,538.79,0.0
52114.0,STARLINK-3737,PAYLOAD,2023-09-23 00:08:55,15.08859449,0.0001408,53.2171,153.467,73.8216,286.2931,0.00063226,9.794e-05,0.0,0 STARLINK-3737,1 52114U 22029AC  23266.00619382  .00009794  00000-0  63226-3 0  9997,2 52114  53.2171 153.4670 0001408  73.8216 286.2931 15.08859449 85120,6917.821,95.436,540.66,538.712,0.0
52114.0,STARLINK-3737,PAYLOAD,2023-09-24 01:35:05,15.08848369,0.0001427,53.2168,148.7111,76.5194,283.5957,7.4072e-05,8.91e-06,0.0,0 STARLINK-3737,1 52114U 22029AC  23267.06603291  .00000891  00000-0  74072-4 0  9997,2 52114  53.2168 148.7111 0001427  76.5194 283.5957 15.08848369 85283,6917.855,95.437,540.707,538.733,0.0
